      2.10          N: GNSS NAV DATA                        RINEX VERSION / TYPE
fic2rin                                 08/09/2021 00:17:16 PGM / RUN BY / DATE
                                                            END OF HEADER
 1 21  8  8 14  0  0.0 6.037526763976e-04-1.136868377216e-11 0.000000000000e+00
    1.590000000000e+02 3.500000000000e+01 4.513402287036e-09 1.513293299060e+00
    1.745298504829e-06 1.106833026279e-02 8.624047040939e-07 5.153675268173e+03
    5.040000000000e+04-2.905726432800e-07 1.470564362931e+00 5.960464477539e-08
    9.847864820698e-01 3.782187500000e+02 8.823863609680e-01-8.436422839446e-09
    6.643133856047e-11 1.000000000000e+00 2.170000000000e+03 0.000000000000e+00
    2.400000000000e+00 0.000000000000e+00 5.122274160385e-09 1.590000000000e+02
    4.320000000000e+04 4.000000000000e+00
 4 21  8  8 14  0  0.0-2.036555670202e-04-4.547473508865e-13 0.000000000000e+00
    2.400000000000e+01-1.678125000000e+01 4.282321233011e-09-3.059452126553e+00
   -9.108334779739e-07 1.320634037256e-03 1.161731779575e-05 5.153712963104e+03
    5.040000000000e+04-1.303851604462e-08-2.694989765895e+00 4.284083843231e-08
    9.609349047845e-01 1.544375000000e+02-2.995192112814e+00-7.751751462992e-09
    4.953777773300e-10 1.000000000000e+00 2.170000000000e+03 0.000000000000e+00
    2.400000000000e+00 0.000000000000e+00-4.190951585770e-09 2.400000000000e+01
    4.320000000000e+04 4.000000000000e+00
 2 21  8  8 14  0  0.0-6.250073201954e-04-2.501110429876e-12 0.000000000000e+00
    2.400000000000e+01 5.762500000000e+01 4.743769025592e-09 1.797633688990e+00
    2.505257725716e-06 2.022802736610e-02 5.476176738739e-07 5.153729759216e+03
    5.040000000000e+04 2.421438694000e-07 1.385201438446e+00-3.054738044739e-07
    9.633857226651e-01 3.650312500000e+02-1.500861026235e+00-8.272130281715e-09
    9.321816862518e-11 1.000000000000e+00 2.170000000000e+03 0.000000000000e+00
    2.400000000000e+00 0.000000000000e+00-1.769512891769e-08 2.400000000000e+01
    4.320000000000e+04 4.000000000000e+00
 9 21  8  8 14  0  0.0-3.582118079066e-04-1.136868377216e-12 0.000000000000e+00
    4.400000000000e+01-2.562500000000e+01 4.378039505776e-09-2.096672095860e+00
   -1.400709152222e-06 2.008333452977e-03 1.163780689240e-05 5.153737316132e+03
    5.040000000000e+04 6.519258022308e-08-2.746391651356e+00 7.264316082001e-08
    9.538688232081e-01 1.516562500000e+02 1.812615194584e+00-7.786038605475e-09
    4.075169747177e-10 1.000000000000e+00 2.170000000000e+03 0.000000000000e+00
    2.400000000000e+00 0.000000000000e+00 1.396983861923e-09 4.400000000000e+01
    4.320000000000e+04 4.000000000000e+00
 8 21  8  8 14  0  0.0-3.184610977769e-05-1.477928890381e-12 0.000000000000e+00
    3.700000000000e+01 1.356562500000e+02 4.148387082688e-09-2.460990737982e+00
    6.889924407005e-06 6.394134252332e-03 1.014582812786e-05 5.153642690659e+03
    5.040000000000e+04-9.872019290924e-08 3.943723527686e-01-8.940696716309e-08
    9.669891854038e-01 1.915937500000e+02 5.910918158610e-02-7.764251983689e-09
    2.014369620866e-10 1.000000000000e+00 2.170000000000e+03 0.000000000000e+00
    2.400000000000e+00 0.000000000000e+00 5.122274160385e-09 3.700000000000e+01
    4.320000000000e+04 4.000000000000e+00
 5 21  8  8 14  0  0.0-5.046650767326e-05-1.250555214938e-12 0.000000000000e+00
    9.800000000000e+01-1.348750000000e+02 4.526974280935e-09-2.162798449282e+00
   -6.958842277527e-06 6.105663254857e-03 5.472451448441e-06 5.153572565079e+03
    5.040000000000e+04 7.823109626770e-08 2.470059449079e+00-4.842877388000e-08
    9.573803430084e-01 2.718125000000e+02 9.597444274020e-01-8.093551414617e-09
   -3.267993267894e-10 1.000000000000e+00 2.170000000000e+03 0.000000000000e+00
    2.400000000000e+00 0.000000000000e+00-1.117587089539e-08 9.800000000000e+01
    4.320000000000e+04 4.000000000000e+00
 6 21  8  8 14  0  0.0 5.266163498163e-05 6.252776074689e-12 0.000000000000e+00
    6.300000000000e+01 4.362500000000e+01 4.410183701853e-09 1.769673181511e+00
    2.276152372360e-06 2.147538703866e-03 6.332993507385e-07 5.153550695419e+03
    5.040000000000e+04-3.166496753693e-08 1.462310994597e+00-6.332993507385e-08
    9.842235950805e-01 3.762812500000e+02-9.734656612550e-01-8.308560370603e-09
    3.964450849577e-11 1.000000000000e+00 2.170000000000e+03 0.000000000000e+00
    2.400000000000e+00 0.000000000000e+00 3.725290298462e-09 6.300000000000e+01
    4.320000000000e+04 4.000000000000e+00
 7 21  8  8 14  0  0.0 2.205870114267e-04 8.071765478235e-12 0.000000000000e+00
    1.740000000000e+02 1.271875000000e+01 5.131285167195e-09 9.133350556368e-01
    7.804483175278e-07 1.523712428752e-02 5.086883902550e-06 5.153733318329e+03
    5.040000000000e+04-2.402812242508e-07-1.673966753263e+00 7.636845111847e-08
    9.509672817301e-01 2.791250000000e+02-2.311836546506e+00-8.438208628117e-09
    3.857303529318e-11 1.000000000000e+00 2.170000000000e+03 0.000000000000e+00
    2.400000000000e+00 0.000000000000e+00-1.117587089539e-08 1.740000000000e+02
    4.320000000000e+04 4.000000000000e+00
22 21  8  8 14  0  0.0-5.433489568532e-04 9.436007530894e-12 0.000000000000e+00
    8.000000000000e+00-1.394375000000e+02 5.049853203798e-09 2.671984258504e+00
   -7.137656211853e-06 6.838407018222e-03 5.459412932396e-06 5.153774797440e+03
    5.040000000000e+04 1.080334186554e-07 2.405843593522e+00 1.434236764908e-07
    9.360370762842e-01 2.584062500000e+02-9.089845157451e-01-8.392135280405e-09
   -4.482329564161e-10 1.000000000000e+00 2.170000000000e+03 0.000000000000e+00
    2.400000000000e+00 0.000000000000e+00-1.769512891769e-08 8.000000000000e+00
    4.320000000000e+04 4.000000000000e+00
16 21  8  8 14  0  0.0-3.703515976667e-04-6.252776074689e-12 0.000000000000e+00
    2.300000000000e+01 2.437500000000e+00 4.131957826914e-09-1.641330752288e+00
   -1.005828380585e-07 1.217864546925e-02 9.657815098763e-06 5.153736104965e+03
    5.040000000000e+04 1.881271600723e-07-5.437941470718e-01-1.247972249985e-07
    9.728414019264e-01 1.927187500000e+02 6.803019398665e-01-7.581744381514e-09
   -3.782300405137e-10 1.000000000000e+00 2.170000000000e+03 0.000000000000e+00
    2.400000000000e+00 0.000000000000e+00-1.024454832077e-08 2.300000000000e+01
    4.320000000000e+04 4.000000000000e+00
10 21  8  8 14  0  0.0-1.783519983292e-04-7.617018127348e-12 0.000000000000e+00
    1.800000000000e+01-1.291250000000e+02 4.286249968087e-09-4.600517715515e-01
   -6.940215826035e-06 6.789205479436e-03 6.660819053650e-06 5.153680755615e+03
    5.040000000000e+04 3.352761268616e-08 2.505019535341e+00 1.266598701477e-07
    9.702997382959e-01 2.554687500000e+02-2.577788032773e+00-8.108194881719e-09
   -4.693052627337e-10 1.000000000000e+00 2.170000000000e+03 0.000000000000e+00
    2.400000000000e+00 0.000000000000e+00 2.328306436539e-09 1.800000000000e+01
    4.320000000000e+04 4.000000000000e+00
12 21  8  8 14  0  0.0-8.001411333680e-05-5.343281372916e-12 0.000000000000e+00
    5.200000000000e+01-1.631250000000e+01 4.246962617326e-09 1.685387308518e-01
   -1.082196831703e-06 8.259972673841e-03 9.967014193535e-06 5.153696359634e+03
    5.040000000000e+04-1.657754182816e-07-5.625012602867e-01 8.568167686462e-08
    9.727845456153e-01 1.983437500000e+02 1.230724132806e+00-7.866756253403e-09
   -5.139499795082e-10 1.000000000000e+00 2.170000000000e+03 0.000000000000e+00
    2.400000000000e+00 0.000000000000e+00-1.257285475731e-08 5.200000000000e+01
    4.320000000000e+04 4.000000000000e+00
30 21  8  8 14  0  0.0-4.599536769092e-04-4.206412995700e-12 0.000000000000e+00
    2.800000000000e+01 1.215625000000e+01 5.408796726665e-09 7.728498826312e-01
    7.376074790955e-07 5.366146564484e-03 4.636123776436e-06 5.153654115677e+03
    5.040000000000e+04-5.774199962616e-08-1.657908801825e+00 1.620501279831e-07
    9.361668912458e-01 2.768125000000e+02-2.733877775497e+00-8.458566618966e-09
    1.853648640478e-10 1.000000000000e+00 2.170000000000e+03 0.000000000000e+00
    2.400000000000e+00 0.000000000000e+00 3.725290298462e-09 2.800000000000e+01
    4.320000000000e+04 4.000000000000e+00
27 21  8  8 14  0  0.0-1.752437092364e-04-5.684341886081e-12 0.000000000000e+00
    1.800000000000e+01 1.276875000000e+02 3.989451890970e-09-2.579367088993e+00
    6.364658474922e-06 9.438012493774e-03 9.668990969658e-06 5.153693147659e+03
    5.040000000000e+04 4.470348358154e-08 4.122152559057e-01-1.769512891769e-07
    9.755981247550e-01 2.020625000000e+02 6.362750091909e-01-7.629603517897e-09
    2.392956819114e-10 1.000000000000e+00 2.170000000000e+03 0.000000000000e+00
    2.400000000000e+00 0.000000000000e+00 1.862645149231e-09 1.800000000000e+01
    4.320000000000e+04 4.000000000000e+00
19 21  8  8 14  0  0.0 3.694789484143e-05 5.002220859751e-12 0.000000000000e+00
    6.000000000000e+01 1.246250000000e+02 3.983737367223e-09-1.038876015756e-01
    6.493180990219e-06 9.246899280697e-03 9.601935744286e-06 5.153650060654e+03
    5.040000000000e+04-8.940696716309e-08 5.184400826990e-01-7.264316082001e-08
    9.803976576119e-01 2.060625000000e+02 1.912740519034e+00-7.926044437279e-09
    2.689397738497e-10 1.000000000000e+00 2.170000000000e+03 0.000000000000e+00
    2.400000000000e+00 0.000000000000e+00-1.536682248116e-08 6.000000000000e+01
    4.320000000000e+04 4.000000000000e+00
31 21  8  8 14  0  0.0-1.331469975412e-04-2.046363078989e-12 0.000000000000e+00
    1.250000000000e+02 9.750000000000e+00 4.985207653909e-09 4.263720663023e-01
    6.519258022308e-07 1.007320394274e-02 4.453584551811e-06 5.153574232101e+03
    5.040000000000e+04 1.247972249985e-07-1.656612501337e+00 1.490116119385e-07
    9.552566292215e-01 2.887500000000e+02 2.762125619105e-01-8.379277601974e-09
    1.650068731986e-10 1.000000000000e+00 2.170000000000e+03 0.000000000000e+00
    2.400000000000e+00 0.000000000000e+00-1.303851604462e-08 1.250000000000e+02
    4.320000000000e+04 4.000000000000e+00
